{"type": "FeatureCollection", "features": [ {"type": "Feature", "properties": {"norad_id": 37906, "name": "FENGYUN 1C DEB", "group": "fengyun-1c-debris", "lat": -59.303974427669125, "lon": -154.75839441206034, "alt_km": 1009.1447008925779, "timestamp": "2025-12-26T17:24:55.008951+00:00", "meta": {"OBJECT_NAME": "FENGYUN 1C DEB", "OBJECT_ID": "1999-025ENF", "EPOCH": "2025-12-24T21:38:01.650336", "MEAN_MOTION": 13.80804491, "ECCENTRICITY": 0.0162343, "INCLINATION": 99.6006, "RA_OF_ASC_NODE": 39.9531, "ARG_OF_PERICENTER": 356.4608, "MEAN_ANOMALY": 182.6575, "EPHEMERIS_TYPE": 0, "CLASSIFICATION_TYPE": "U", "NORAD_CAT_ID": 37906, "ELEMENT_SET_NO": 999, "REV_AT_EPOCH": 59623, "BSTAR": 0.00060461, "MEAN_MOTION_DOT": 6.56e-06, "MEAN_MOTION_DDOT": 0}, "tle": {"line1": "1 37906U 99025ENF 25358.90140799  .00000656  00000+0  60461-3 0  9998", "line2": "2 37906  99.6006  39.9531 0162343 356.4608 182.6575 13.80804491596235"}}, "geometry": {"type": "Point", "coordinates": [-154.75839441206034, -59.303974427669125]}}, {"type": "Feature", "properties": {"norad_id": 37907, "name": "FENGYUN 1C DEB", "group": "fengyun-1c-debris", "lat": 0.687701925199257, "lon": -65.7373150610356, "alt_km": 777.2570190459292, "timestamp": "2025-12-26T17:24:55.008961+00:00", "meta": {"OBJECT_NAME": "FENGYUN 1C DEB", "OBJECT_ID": "1999-025ENG", "EPOCH": "2025-12-25T03:28:22.402272", "MEAN_MOTION": 14.23706072, "ECCENTRICITY": 0.0062616, "INCLINATION": 99.0798, "RA_OF_ASC_NODE": 112.5214, "ARG_OF_PERICENTER": 151.8858, "MEAN_ANOMALY": 208.5724, "EPHEMERIS_TYPE": 0, "CLASSIFICATION_TYPE": "U", "NORAD_CAT_ID": 37907, "ELEMENT_SET_NO": 999, "REV_AT_EPOCH": 83449, "BSTAR": 0.0028541, "MEAN_MOTION_DOT": 6.608e-05, "MEAN_MOTION_DDOT": 0}, "tle": {"line1": "1 37907U 99025ENG 25359.14470373  .00006608  00000+0  28541-2 0  9995", "line2": "2 37907  99.0798 112.5214 0062616 151.8858 208.5724 14.23706072834491"}}, "geometry": {"type": "Point", "coordinates": [-65.7373150610356, 0.687701925199257]}}, {"type": "Feature", "properties": {"norad_id": 37908, "name": "FENGYUN 1C DEB", "group": "fengyun-1c-debris", "lat": -66.61496972169516, "lon": -168.3953732131179, "alt_km": 811.8548757312401, "timestamp": "2025-12-26T17:24:55.008971+00:00", "meta": {"OBJECT_NAME": "FENGYUN 1C DEB", "OBJECT_ID": "1999-025ENH", "EPOCH": "2025-12-21T07:33:41.047488", "MEAN_MOTION": 14.36621553, "ECCENTRICITY": 0.00747559, "INCLINATION": 99.1512, "RA_OF_ASC_NODE": 27.7446, "ARG_OF_PERICENTER": 132.8804, "MEAN_ANOMALY": 227.869, "EPHEMERIS_TYPE": 0, "CLASSIFICATION_TYPE": "U", "NORAD_CAT_ID": 37908, "ELEMENT_SET_NO": 999, "REV_AT_EPOCH": 64184, "BSTAR": 0.00036301437, "MEAN_MOTION_DOT": 1.053e-05, "MEAN_MOTION_DDOT": 0}, "tle": {"line1": "1 37908U 99025ENH 25355.31505842  .00001053  00000+0  36301-3 0  9994", "line2": "2 37908  99.1512  27.7446 0074755 132.8804 227.8690 14.36621553641843"}}, "geometry": {"type": "Point", "coordinates": [-168.3953732131179, -66.61496972169516]}}, {"type": "Feature", "properties": {"norad_id": 37912, "name": "FENGYUN 1C DEB", "group": "fengyun-1c-debris", "lat": 53.72053277089417, "lon": -43.05946573517554, "alt_km": 792.4983487900836, "timestamp": "2025-12-26T17:24:55.008981+00:00", "meta": {"OBJECT_NAME": "FENGYUN 1C DEB", "OBJECT_ID": "1999-025ENM", "EPOCH": "2025-12-24T09:01:28.629120", "MEAN_MOTION": 14.11593398, "ECCENTRICITY": 0.00927445, "INCLINATION": 99.2304, "RA_OF_ASC_NODE": 327.3238, "ARG_OF_PERICENTER": 28.0606, "MEAN_ANOMALY": 332.552, "EPHEMERIS_TYPE": 0, "CLASSIFICATION_TYPE": "U", "NORAD_CAT_ID": 37912, "ELEMENT_SET_NO": 999, "REV_AT_EPOCH": 77452, "BSTAR": 0.0025536166, "MEAN_MOTION_DOT": 4.787e-05, "MEAN_MOTION_DDOT": 0}, "tle": {"line1": "1 37912U 99025ENM 25358.37602580  .00004787  00000+0  25536-2 0  9999", "line2": "2 37912  99.2304 327.3238 0092744  28.0606 332.5520 14.11593398774526"}}, "geometry": {"type": "Point", "coordinates": [-43.05946573517554, 53.72053277089417]}}, {"type": "Feature", "properties": {"norad_id": 37918, "name": "FENGYUN 1C DEB", "group": "fengyun-1c-debris", "lat": 18.139798758786608, "lon": 133.79229300579115, "alt_km": 770.6960171590017, "timestamp": "2025-12-26T17:24:55.008991+00:00", "meta": {"OBJECT_NAME": "FENGYUN 1C DEB", "OBJECT_ID": "1999-025ENT", "EPOCH": "2025-12-24T14:26:11.945760", "MEAN_MOTION": 14.34427362, "ECCENTRICITY": 0.00546335, "INCLINATION": 99.0295, "RA_OF_ASC_NODE": 308.5879, "ARG_OF_PERICENTER": 248.3892, "MEAN_ANOMALY": 111.1466, "EPHEMERIS_TYPE": 0, "CLASSIFICATION_TYPE": "U", "NORAD_CAT_ID": 37918, "ELEMENT_SET_NO": 999, "REV_AT_EPOCH": 3712, "BSTAR": 0.00066196779, "MEAN_MOTION_DOT": 1.847e-05, "MEAN_MOTION_DDOT": 0}, "tle": {"line1": "1 37918U 99025ENT 25358.60152715  .00001847  00000+0  66197-3 0  9994", "line2": "2 37918  99.0295 308.5879 0054633 248.3892 111.1466 14.34427362 37120"}}, "geometry": {"type": "Point", "coordinates": [133.79229300579115, 18.139798758786608]}}, {"type": "Feature", "properties": {"norad_id": 37919, "name": "FENGYUN 1C DEB", "group": "fengyun-1c-debris", "lat": -47.339138403210136, "lon": -50.87108364100248, "alt_km": 776.8661064926982, "timestamp": "2025-12-26T17:24:55.009001+00:00", "meta": {"OBJECT_NAME": "FENGYUN 1C DEB", "OBJECT_ID": "1999-025ENU", "EPOCH": "2025-12-21T13:05:37.870080", "MEAN_MOTION": 14.26784577, "ECCENTRICITY": 0.0049416, "INCLINATION": 99.0587, "RA_OF_ASC_NODE": 293.7998, "ARG_OF_PERICENTER": 351.2429, "MEAN_ANOMALY": 8.7883, "EPHEMERIS_TYPE": 0, "CLASSIFICATION_TYPE": "U", "NORAD_CAT_ID": 37919, "ELEMENT_SET_NO": 999, "REV_AT_EPOCH": 65034, "BSTAR": 0.0004279, "MEAN_MOTION_DOT": 1.003e-05, "MEAN_MOTION_DDOT": 0}, "tle": {"line1": "1 37919U 99025ENU 25355.54557720  .00001003  00000+0  42790-3 0  9997", "line2": "2 37919  99.0587 293.7998 0049416 351.2429   8.7883 14.26784577650349"}}, "geometry": {"type": "Point", "coordinates": [-50.87108364100248, -47.339138403210136]}}, {"type": "Feature", "properties": {"norad_id": 37921, "name": "FENGYUN 1C DEB", "group": "fengyun-1c-debris", "lat": 79.06673025260412, "lon": -83.18017915243718, "alt_km": 853.0067198414754, "timestamp": "2025-12-26T17:24:55.009010+00:00", "meta": {"OBJECT_NAME": "FENGYUN 1C DEB", "OBJECT_ID": "1999-025ENW", "EPOCH": "2025-12-21T19:55:24.950496", "MEAN_MOTION": 13.95159889, "ECCENTRICITY": 0.00843197, "INCLINATION": 99.021, "RA_OF_ASC_NODE": 36.7092, "ARG_OF_PERICENTER": 74.058, "MEAN_ANOMALY": 286.9853, "EPHEMERIS_TYPE": 0, "CLASSIFICATION_TYPE": "U", "NORAD_CAT_ID": 37921, "ELEMENT_SET_NO": 999, "REV_AT_EPOCH": 63274, "BSTAR": 0.00031229262, "MEAN_MOTION_DOT": 3.91e-06, "MEAN_MOTION_DDOT": 0}, "tle": {"line1": "1 37921U 99025ENW 25355.83014989  .00000391  00000+0  31229-3 0  9991", "line2": "2 37921  99.0210  36.7092 0084319  74.0580 286.9853 13.95159889632742"}}, "geometry": {"type": "Point", "coordinates": [-83.18017915243718, 79.06673025260412]}}, {"type": "Feature", "properties": {"norad_id": 37925, "name": "FENGYUN 1C DEB", "group": "fengyun-1c-debris", "lat": -17.037021797596992, "lon": 48.9070893307314, "alt_km": 640.2877575182283, "timestamp": "2025-12-26T17:24:55.009021+00:00", "meta": {"OBJECT_NAME": "FENGYUN 1C DEB", "OBJECT_ID": "1999-025EPA", "EPOCH": "2025-12-22T21:41:38.860800", "MEAN_MOTION": 14.80526884, "ECCENTRICITY": 0.0055816, "INCLINATION": 99.0855, "RA_OF_ASC_NODE": 227.3947, "ARG_OF_PERICENTER": 311.3833, "MEAN_ANOMALY": 48.2583, "EPHEMERIS_TYPE": 0, "CLASSIFICATION_TYPE": "U", "NORAD_CAT_ID": 37925, "ELEMENT_SET_NO": 999, "REV_AT_EPOCH": 65833, "BSTAR": 0.0018808, "MEAN_MOTION_DOT": 0.00014755, "MEAN_MOTION_DDOT": 0}, "tle": {"line1": "1 37925U 99025EPA 25356.90392200  .00014755  00000+0  18808-2 0  9995", "line2": "2 37925  99.0855 227.3947 0055816 311.3833  48.2583 14.80526884658336"}}, "geometry": {"type": "Point", "coordinates": [48.9070893307314, -17.037021797596992]}}, {"type": "Feature", "properties": {"norad_id": 37926, "name": "FENGYUN 1C DEB", "group": "fengyun-1c-debris", "lat": 77.78311957826632, "lon": -71.05124467774687, "alt_km": 798.5387784335635, "timestamp": "2025-12-26T17:24:55.009031+00:00", "meta": {"OBJECT_NAME": "FENGYUN 1C DEB", "OBJECT_ID": "1999-025EPB", "EPOCH": "2025-12-26T03:47:17.191104", "MEAN_MOTION": 14.24308982, "ECCENTRICITY": 0.00546457, "INCLINATION": 98.722, "RA_OF_ASC_NODE": 63.2306, "ARG_OF_PERICENTER": 183.2823, "MEAN_ANOMALY": 246.1525, "EPHEMERIS_TYPE": 0, "CLASSIFICATION_TYPE": "U", "NORAD_CAT_ID": 37926, "ELEMENT_SET_NO": 999, "REV_AT_EPOCH": 74461, "BSTAR": 0.0014652727, "MEAN_MOTION_DOT": 3.394e-05, "MEAN_MOTION_DDOT": 0}, "tle": {"line1": "1 37926U 99025EPB 25360.15783786  .00003394  00000+0  14653-2 0  9992", "line2": "2 37926  98.7220  63.2306 0054645 183.2823 246.1525 14.24308982744616"}}, "geometry": {"type": "Point", "coordinates": [-71.05124467774687, 77.78311957826632]}}, {"type": "Feature", "properties": {"norad_id": 37927, "name": "FENGYUN 1C DEB", "group": "fengyun-1c-debris", "lat": -49.1729623857133, "lon": 155.8998365624577, "alt_km": 658.4083320846912, "timestamp": "2025-12-26T17:24:55.009041+00:00", "meta": {"OBJECT_NAME": "FENGYUN 1C DEB", "OBJECT_ID": "1999-025EPC", "EPOCH": "2025-12-26T04:35:39.607296", "MEAN_MOTION": 14.72395147, "ECCENTRICITY": 0.00084337, "INCLINATION": 98.8077, "RA_OF_ASC_NODE": 144.9834, "ARG_OF_PERICENTER": 239.2656, "MEAN_ANOMALY": 120.7719, "EPHEMERIS_TYPE": 0, "CLASSIFICATION_TYPE": "U", "NORAD_CAT_ID": 37927, "ELEMENT_SET_NO": 999, "REV_AT_EPOCH": 65314, "BSTAR": 0.0041961734, "MEAN_MOTION_DOT": 0.00026636, "MEAN_MOTION_DDOT": 0}, "tle": {"line1": "1 37927U 99025EPC 25360.19143064  .00026636  00000+0  41962-2 0  9993", "line2": "2 37927  98.8077 144.9834 0008433 239.2656 120.7719 14.72395147653142"}}, "geometry": {"type": "Point", "coordinates": [155.8998365624577, -49.1729623857133]}}]}